NORAD_CAT_ID,OBJECT_NAME,OBJECT_TYPE,EPOCH,MEAN_MOTION,ECCENTRICITY,INCLINATION,RA_OF_ASC_NODE,ARG_OF_PERICENTER,MEAN_ANOMALY,BSTAR,MEAN_MOTION_DOT,MEAN_MOTION_DDOT,TLE_LINE0,TLE_LINE1,TLE_LINE2,SEMIMAJOR_AXIS,PERIOD,APOGEE,PERIGEE,DECAYED
49757.0,STARLINK-3197,PAYLOAD,2022-10-20 10:35:24,15.08843666,0.0002218999999999,53.2166,288.8533,44.7221,315.395,0.00013791,1.907e-05,0.0,0 STARLINK-3197,1 49757U 21115AK  22293.44125970  .00001907  00000-0  13791-3 0  9993,2 49757  53.2166 288.8533 0002219  44.7221 315.3950 15.08843666 50152,6917.869000000002,95.437,541.269,538.1990000000002,0.0
49757.0,STARLINK-3197,PAYLOAD,2022-10-20 12:10:47,15.08844552,0.0002225,53.2166,288.5558,44.7291,315.388,0.00014402,2.005e-05,0.0,0 STARLINK-3197,1 49757U 21115AK  22293.50749893  .00002005  00000-0  14402-3 0  9996,2 49757  53.2166 288.5558 0002225  44.7291 315.3880 15.08844552 49054,6917.866,95.437,541.271,538.192,0.0
49757.0,STARLINK-3197,PAYLOAD,2022-10-20 16:56:57,15.08841155,0.0002263,53.2166,287.6636,44.5645,315.5529,0.00020843,3.031e-05,0.0,0 STARLINK-3197,1 49757U 21115AK  22293.70622085  .00003031  00000-0  20843-3 0  9997,2 49757  53.2166 287.6636 0002263  44.5645 315.5529 15.08841155 49085,6917.877,95.437,541.307,538.1759999999998,0.0
49757.0,STARLINK-3197,PAYLOAD,2022-10-21 10:26:11,15.08844303,0.0002203,53.2165,284.3925,45.569,314.5482,7.9485e-05,9.77e-06,0.0,0 STARLINK-3197,1 49757U 21115AK  22294.43485962  .00000977  00000-0  79485-4 0  9992,2 49757  53.2165 284.3925 0002203  45.5690 314.5482 15.08844303 49191,6917.8669999999975,95.437,541.256,538.2080000000002,0.0
49757.0,STARLINK-3197,PAYLOAD,2022-10-21 16:47:43,15.08850666,0.0002204,53.2165,283.2031,45.7992,314.3181,9.5014e-05,1.225e-05,0.0,0 STARLINK-3197,1 49757U 21115AK  22294.69981382  .00001225  00000-0  95014-4 0  9990,2 49757  53.2165 283.2031 0002204  45.7992 314.3181 15.08850666 50347,6917.848000000001,95.437,541.237,538.188,0.0
49757.0,STARLINK-3197,PAYLOAD,2022-10-22 05:30:49,15.08839558,0.0002158,53.2167,280.8243,47.1673,312.9501,6.9577e-05,8.19e-06,0.0,0 STARLINK-3197,1 49757U 21115AK  22295.22974108  .00000819  00000-0  69577-4 0  9991,2 49757  53.2167 280.8243 0002158  47.1673 312.9501 15.08839558 50423,6917.882,95.438,541.24,538.254,0.0
49757.0,STARLINK-3197,PAYLOAD,2022-10-22 10:16:58,15.08846051,0.0002177,53.2165,279.9317,45.3788,314.7381,8.608799999999999e-05,1.082e-05,0.0,0 STARLINK-3197,1 49757U 21115AK  22295.42845663  .00001082  00000-0  86088-4 0  9995,2 49757  53.2165 279.9317 0002177  45.3788 314.7381 15.08846051 49341,6917.861999999999,95.437,541.2330000000002,538.221,0.0
49757.0,STARLINK-3197,PAYLOAD,2022-10-22 16:38:31,15.08848093,0.0002229,53.2166,278.7422,45.669,314.4485,8.4774e-05,1.061e-05,0.0,0 STARLINK-3197,1 49757U 21115AK  22295.69341464  .00001061  00000-0  84774-4 0  9991,2 49757  53.2166 278.7422 0002229  45.6690 314.4485 15.08848093 50497,6917.856,95.437,541.263,538.179,0.0
49757.0,STARLINK-3197,PAYLOAD,2022-10-23 08:32:22,15.08850772,0.0002191999999999,53.2156,275.7687,46.0049,314.1124,0.00019389,2.8000000000000013e-05,0.0,0 STARLINK-3197,1 49757U 21115AK  22296.35581273  .00002800  00000-0  19389-3 0  9990,2 49757  53.2156 275.7687 0002192  46.0049 314.1124 15.08850772 49489,6917.847,95.437,541.229,538.196,0.0
49757.0,STARLINK-3197,PAYLOAD,2022-10-24 05:12:22,15.08847363,0.0002177999999999,53.2156,271.9027,47.14100000000001,312.9765,0.00015639,2.202e-05,0.0,0 STARLINK-3197,1 49757U 21115AK  22297.21693003  .00002202  00000-0  15639-3 0  9991,2 49757  53.2156 271.9027 0002178  47.1410 312.9765 15.08847363 50721,6917.858,95.437,541.23,538.216,0.0
49757.0,STARLINK-3197,PAYLOAD,2022-10-24 08:23:09,15.08838561,0.0002174999999999,53.2155,271.3078,41.3657,318.7499,-1.1997e-05,-4.79e-06,0.0,0 STARLINK-3197,1 49757U 21115AK  22297.34941417 -.00000479  00000-0 -11997-4 0  9990,2 49757  53.2155 271.3078 0002175  41.3657 318.7499 15.08838561 49632,6917.885,95.438,541.254,538.245,0.0
49757.0,STARLINK-3197,PAYLOAD,2022-10-25 05:03:12,15.08820557,0.0002021999999999,53.2163,267.443,42.8185,317.2965,-8.693299999999999e-05,-1.671e-05,0.0,0 STARLINK-3197,1 49757U 21115AK  22298.21055640 -.00001671  00000-0 -86933-4 0  9998,2 49757  53.2163 267.4430 0002022  42.8185 317.2965 15.08820557 50878,6917.94,95.439,541.2040000000002,538.406,0.0
49757.0,STARLINK-3197,PAYLOAD,2022-10-25 09:49:21,15.0882419,0.0002019,53.2163,266.5506,40.0971,320.0169,-0.00011959,-2.19e-05,0.0,0 STARLINK-3197,1 49757U 21115AK  22298.40927660 -.00002190  00000-0 -11959-3 0  9991,2 49757  53.2163 266.5506 0002019  40.0971 320.0169 15.08824190 49795,6917.929,95.439,541.19,538.3969999999998,0.0
49757.0,STARLINK-3197,PAYLOAD,2022-10-25 14:35:30,15.08827729,0.0002006999999999,53.2164,265.6584,40.5054,319.6088,-0.00010611,-1.976e-05,0.0,0 STARLINK-3197,1 49757U 21115AK  22298.60799556 -.00001976  00000-0 -10611-3 0  9999,2 49757  53.2164 265.6584 0002007  40.5054 319.6088 15.08827729 50939,6917.918000000002,95.438,541.1709999999998,538.394,0.0
49757.0,STARLINK-3197,PAYLOAD,2022-10-25 20:57:03,15.08828422,0.0002014,53.2162,264.4686,39.0136,321.1001,-6.2178e-05,-1.277e-05,0.0,0 STARLINK-3197,1 49757U 21115AK  22298.87295606 -.00001277  00000-0 -62178-4 0  9995,2 49757  53.2162 264.4686 0002014  39.0136 321.1001 15.08828422 49863,6917.916,95.438,541.174,538.388,0.0
49757.0,STARLINK-3197,PAYLOAD,2022-10-26 06:29:22,15.08831995,0.0002025,53.2164,262.6847,41.1051,319.0093,7.218e-05,8.61e-06,0.0,0 STARLINK-3197,1 49757U 21115AK  22299.27039482  .00000861  00000-0  72180-4 0  9998,2 49757  53.2164 262.6847 0002025  41.1051 319.0093 15.08831995 49929,6917.905,95.438,541.1709999999998,538.369,0.0
49757.0,STARLINK-3197,PAYLOAD,2022-10-26 20:47:50,15.08838157,0.0002052,53.215,260.0064,34.6283,325.4842,0.00041337,6.296e-05,0.0,0 STARLINK-3197,1 49757U 21115AK  22299.86655658  .00006296  00000-0  41337-3 0  9999,2 49757  53.2150 260.0064 0002052  34.6283 325.4842 15.08838157 50013,6917.886,95.438,541.1709999999998,538.331,0.0
49757.0,STARLINK-3197,PAYLOAD,2022-10-27 06:20:08,15.08856031,0.0002189999999999,53.2157,258.2237,28.9198,331.1915,0.00056867,8.778e-05,0.0,0 STARLINK-3197,1 49757U 21115AK  22300.26398995  .00008778  00000-0  56867-3 0  9995,2 49757  53.2157 258.2237 0002190  28.9198 331.1915 15.08856031 50077,6917.831,95.437,541.211,538.181,0.0
49757.0,STARLINK-3197,PAYLOAD,2022-10-28 04:35:33,15.08823488,0.0002056,53.215,254.0599,45.1997,314.9162,-0.00029582,-4.991e-05,0.0,0 STARLINK-3197,1 49757U 21115AK  22301.19136154 -.00004991  00000-0 -29582-3 0  9994,2 49757  53.2150 254.0599 0002056  45.1997 314.9162 15.08823488 51326,6917.931,95.439,541.2180000000002,538.374,0.0
49757.0,STARLINK-3197,PAYLOAD,2022-10-28 09:21:42,15.08841944,0.0001893,53.2152,253.1681,45.0456,315.0689,0.00021304,3.104e-05,0.0,0 STARLINK-3197,1 49757U 21115AK  22301.39007658  .00003104  00000-0  21304-3 0  9999,2 49757  53.2152 253.1681 0001893  45.0456 315.0689 15.08841944 50240,6917.874,95.437,541.049,538.43,0.0
49757.0,STARLINK-3197,PAYLOAD,2022-10-28 20:29:24,15.08859916,0.0002089999999999,53.2154,251.0867,48.9236,311.1936,0.0021474,0.00034073,0.0,0 STARLINK-3197,1 49757U 21115AK  22301.85375817  .00034073  00000-0  21474-2 0  9991,2 49757  53.2154 251.0867 0002090  48.9236 311.1936 15.08859916 50311,6917.82,95.436,541.13,538.239,0.0
49757.0,STARLINK-3197,PAYLOAD,2022-10-29 07:37:06,15.08866053,0.0001919,53.2148,249.0033,49.0643,311.0515,0.0010844,0.00017025,0.0,0 STARLINK-3197,1 49757U 21115AK  22302.31743072  .00017025  00000-0  10844-2 0  9992,2 49757  53.2148 249.0033 0001919  49.0643 311.0515 15.08866053 50388,6917.801,95.436,540.993,538.3380000000002,0.0
49757.0,STARLINK-3197,PAYLOAD,2022-10-29 13:58:38,15.08866385,0.0002281,53.2156,247.8164,45.3624,314.7554,0.00064681,0.00010028,0.0,0 STARLINK-3197,1 49757U 21115AK  22302.58238750  .00010028  00000-0  64681-3 0  9998,2 49757  53.2156 247.8164 0002281  45.3624 314.7554 15.08866385 50425,6917.8,95.436,541.243,538.087,0.0
49757.0,STARLINK-3197,PAYLOAD,2022-10-30 02:41:43,15.0884976,0.0001825,53.2155,245.4373,39.9564,320.1563,-9.5441e-05,-1.807e-05,0.0,0 STARLINK-3197,1 49757U 21115AK  22303.11230353 -.00001807  00000-0 -95441-4 0  9995,2 49757  53.2155 245.4373 0001825  39.9564 320.1563 15.08849760 50503,6917.851,95.437,540.9780000000002,538.453,0.0
49757.0,STARLINK-3197,PAYLOAD,2022-10-30 13:49:25,15.08847655,0.0001996,53.2154,243.3562,40.4446,319.6695,2.3757e-05,9.000000000000002e-07,0.0,0 STARLINK-3197,1 49757U 21115AK  22303.57598380  .00000090  00000-0  23757-4 0  9994,2 49757  53.2154 243.3562 0001996  40.4446 319.6695 15.08847655 50571,6917.857,95.437,541.1030000000002,538.341,0.0
49757.0,STARLINK-3197,PAYLOAD,2022-10-31 05:43:16,15.08840297,0.0001992,53.2162,240.3832,32.433,327.6784,-3.9034e-05,-9.09e-06,0.0,0 STARLINK-3197,1 49757U 21115AK  22304.23838539 -.00000909  00000-0 -39034-4 0  9997,2 49757  53.2162 240.3832 0001992  32.4330 327.6784 15.08840297 51783,6917.879,95.438,541.123,538.366,0.0
49757.0,STARLINK-3197,PAYLOAD,2022-11-01 07:09:26,15.08843778,0.0001918,53.216,235.6248,42.5121,317.6019,0.00017341,2.473e-05,0.0,0 STARLINK-3197,1 49757U 21115AK  22305.29822712  .00002473  00000-0  17341-3 0  9992,2 49757  53.2160 235.6248 0001918  42.5121 317.6019 15.08843778 51942,6917.869000000002,95.437,541.061,538.4069999999998,0.0
49757.0,STARLINK-3197,PAYLOAD,2022-11-01 19:52:32,15.08841514,0.0002021999999999,53.2166,233.2454,38.2531,321.8604,0.00014344,1.996e-05,0.0,0 STARLINK-3197,1 49757U 21115AK  22305.82814962  .00001996  00000-0  14344-3 0  9998,2 49757  53.2166 233.2454 0002022  38.2531 321.8604 15.08841514 50914,6917.876,95.437,541.14,538.342,0.0
49757.0,STARLINK-3197,PAYLOAD,2022-11-02 03:49:27,15.0884008,0.0001843,53.2155,231.7579,40.2904,319.8224,0.00017156,2.443e-05,0.0,0 STARLINK-3197,1 49757U 21115AK  22306.15934956  .00002443  00000-0  17156-3 0  9993,2 49757  53.2155 231.7579 0001843  40.2904 319.8224 15.08840080 52071,6917.88,95.438,541.02,538.47,0.0
